H1 CPF 01  gfz 2021 05 31 12  6512 tandemx   
H2 1003001  6202 36605    2021 05 31 12 59 42 2021 06 05 00 00 42   120 1 1  0 0 0
H9
10 0 59368  19422.000000  0   -6555801.578  -1309500.958  -1672869.334
10 0 59368  19542.000000  0   -6746327.295  -1162573.303   -783071.370
10 0 59368  19662.000000  0   -6816248.327   -993059.674    120499.630
10 0 59368  19782.000000  0   -6763922.976   -806036.204   1021947.813
10 0 59368  19902.000000  0   -6589960.285   -606900.248   1905399.617
10 0 59368  20022.000000  0   -6297215.937   -401235.331   2755292.493
10 0 59368  20142.000000  0   -5890742.866   -194672.586   3556657.766
10 0 59368  20262.000000  0   -5377697.002      7247.668   4295391.330
10 0 59368  20382.000000  0   -4767201.316    199209.703   4958505.442
10 0 59368  20502.000000  0   -4070173.313    376249.226   5534356.628
10 0 59368  20622.000000  0   -3299120.769    533870.401   6012847.793
10 0 59368  20742.000000  0   -2467908.357    668149.506   6385601.150
10 0 59368  20862.000000  0   -1591501.849    775823.615   6646099.492
10 0 59368  20982.000000  0    -685693.652    854363.622   6789794.149
10 0 59368  21102.000000  0     233183.141    902029.145   6814178.304
10 0 59368  21222.000000  0    1148548.503    917904.784   6718827.552
10 0 59368  21342.000000  0    2043873.458    901917.763   6505406.974
10 0 59368  21462.000000  0    2902977.600    854836.035   6177644.097
10 0 59368  21582.000000  0    3710322.560    778246.906   5741268.590
10 0 59368  21702.000000  0    4451296.007    674516.867   5203916.949
10 0 59368  21822.000000  0    5112480.447    546732.609   4575005.353
10 0 59368  21942.000000  0    5681904.536    398624.351   3865571.082
10 0 59368  22062.000000  0    6149270.213    234474.322   3088081.605
10 0 59368  22182.000000  0    6506148.893     59011.570   2256214.919
10 0 59368  22302.000000  0    6746142.228   -122706.381   1384617.070
10 0 59368  22422.000000  0    6865005.459   -305419.884    488639.269
10 0 59368  22542.000000  0    6860727.551   -483798.686   -415940.067
10 0 59368  22662.000000  0    6733566.147   -652576.450  -1313202.847
10 0 59368  22782.000000  0    6486036.141   -806683.941  -2187380.014
10 0 59368  22902.000000  0    6122852.874   -941377.387  -3023136.002
10 0 59368  23022.000000  0    5650832.189  -1052359.055  -3805842.017
10 0 59368  23142.000000  0    5078750.381  -1135886.711  -4521833.123
10 0 59368  23262.000000  0    4417168.596  -1188869.153  -5158643.588
10 0 59368  23382.000000  0    3678227.158  -1208946.839  -5705217.715
10 0 59368  23502.000000  0    2875413.456  -1194556.132  -6152092.646
10 0 59368  23622.000000  0    2023310.191  -1144974.796  -6491550.815
10 0 59368  23742.000000  0    1137328.865  -1060348.204  -6717742.080
10 0 59368  23862.000000  0     233432.999   -941697.915  -6826774.337
10 0 59368  23982.000000  0    -672144.894   -790910.821  -6816773.122
10 0 59368  24102.000000  0   -1563187.750   -610709.739  -6687910.135
10 0 59368  24222.000000  0   -2423778.054   -404605.287  -6442400.633
10 0 59368  24342.000000  0   -3238575.472   -176830.244  -6084468.205
10 0 59368  24462.000000  0   -3993084.910     67742.885  -5620280.855
10 0 59368  24582.000000  0   -4673914.661    323700.327  -5057855.661
10 0 59368  24702.000000  0   -5269016.710    585199.246  -4406931.716
10 0 59368  24822.000000  0   -5767907.891    846093.020  -3678813.748
10 0 59368  24942.000000  0   -6161865.411   1100067.457  -2886184.714
10 0 59368  25062.000000  0   -6444091.752   1340784.249  -2042890.737
10 0 59368  25182.000000  0   -6609844.757   1562028.281  -1163701.644
10 0 59368  25302.000000  0   -6656529.947   1757856.545   -264050.228
10 0 59368  25422.000000  0   -6583749.261   1922742.671    640245.268
10 0 59368  25542.000000  0   -6393305.512   2051714.865   1533266.463
10 0 59368  25662.000000  0   -6089163.388   2140484.050   2399283.824
10 0 59368  25782.000000  0   -5677366.267   2185558.010   3223042.867
10 0 59368  25902.000000  0   -5165911.214   2184337.792   3990040.788
10 0 59368  26022.000000  0   -4564585.359   2135194.533   4686786.487
10 0 59368  26142.000000  0   -3884769.698   2037525.443   5301038.863
10 0 59368  26262.000000  0   -3139215.705   1891787.904   5822020.451
10 0 59368  26382.000000  0   -2341798.438   1699511.301   6240604.209
10 0 59368  26502.000000  0   -1507250.777   1463285.230   6549468.282
10 0 59368  26622.000000  0    -650886.440   1186724.940   6743217.177
10 0 59368  26742.000000  0     211682.165    874415.511   6818469.118
10 0 59368  26862.000000  0    1064827.776    531835.258   6773911.220
10 0 59368  26982.000000  0    1893190.207    165259.889   6610320.799
10 0 59368  27102.000000  0    2681951.714   -218351.615   6330553.283
10 0 59368  27222.000000  0    3417102.653   -611488.181   5939496.695
10 0 59368  27342.000000  0    4085693.166  -1006231.966   5443991.128
10 0 59368  27462.000000  0    4676065.567  -1394416.521   4852714.813
10 0 59368  27582.000000  0    5178063.847  -1767794.200   4176038.162
10 0 59368  27702.000000  0    5583217.300  -2118209.301   3425846.384
10 0 59368  27822.000000  0    5884892.534  -2437774.599   2615331.919
10 0 59368  27942.000000  0    6078409.347  -2719046.187   1758761.012
10 0 59368  28062.000000  0    6161119.298  -2955191.995    871219.312
10 0 59368  28182.000000  0    6132444.170  -3140150.864    -31661.029
10 0 59368  28302.000000  0    5993871.634  -3268776.794   -933984.875
10 0 59368  28422.000000  0    5748909.451  -3336965.213  -1819884.001
10 0 59368  28542.000000  0    5402997.391  -3341756.978  -2673803.932
10 0 59368  28662.000000  0    4963383.062  -3281419.122  -3480782.451
10 0 59368  28782.000000  0    4438962.963  -3155500.042  -4226714.370
10 0 59368  28902.000000  0    3840094.099  -2964858.714  -4898597.245
10 0 59368  29022.000000  0    3178380.195  -2711666.124  -5484753.074
10 0 59368  29142.000000  0    2466440.331  -2399380.754  -5975021.582
10 0 59368  29262.000000  0    1717665.837  -2032700.519  -6360926.000
10 0 59368  29382.000000  0     945967.134  -1617489.714  -6635810.293
10 0 59368  29502.000000  0     165516.202  -1160682.871  -6794942.744
10 0 59368  29622.000000  0    -609509.440   -670169.340  -6835588.026
10 0 59368  29742.000000  0   -1365178.029   -154659.510  -6757048.507
10 0 59368  29862.000000  0   -2088048.350    376466.283  -6560674.628
10 0 59368  29982.000000  0   -2765403.044    913323.831  -6249843.472
10 0 59368  30102.000000  0   -3385467.677   1445703.941  -5829907.344
10 0 59368  30222.000000  0   -3937614.411   1963261.886  -5308112.298
10 0 59368  30342.000000  0   -4412547.564   2455715.355  -4693485.055
10 0 59368  30462.000000  0   -4802465.713   2913047.728  -3996687.287
10 0 59368  30582.000000  0   -5101196.816   3325710.889  -3229840.393
10 0 59368  30702.000000  0   -5304305.134   3684825.457  -2406323.091
10 0 59368  30822.000000  0   -5409165.230   3982373.387  -1540541.827
10 0 59368  30942.000000  0   -5415001.765   4211377.266   -647679.060
10 0 59368  31062.000000  0   -5322892.661   4366062.053    256576.744
10 0 59368  31182.000000  0   -5135734.915   4441995.320   1156314.227
10 0 59368  31302.000000  0   -4858171.991   4436199.762   2035688.776
10 0 59368  31422.000000  0   -4496485.873   4347236.331   2879210.504
10 0 59368  31542.000000  0   -4058456.398   4175256.944   3672024.845
10 0 59368  31662.000000  0   -3553191.901   3922023.904   4400180.118
10 0 59368  31782.000000  0   -2990936.300   3590896.385   5050876.159
10 0 59368  31902.000000  0   -2382856.406   3186784.456   5612689.954
10 0 59368  32022.000000  0   -1740814.998   2716072.390   6075773.654
10 0 59368  32142.000000  0   -1077134.727   2186512.908   6432022.339
10 0 59368  32262.000000  0    -404359.113   1607094.735   6675208.141
10 0 59368  32382.000000  0     264983.959    987887.641   6801083.387
10 0 59368  32502.000000  0     918615.522    339866.001   6807450.153
10 0 59368  32622.000000  0    1544729.710   -325285.176   6694195.938
10 0 59368  32742.000000  0    2132206.146   -995380.309   6463296.357
10 0 59368  32862.000000  0    2670807.310  -1657955.866   6118783.111
10 0 59368  32982.000000  0    3151358.890  -2300501.871   5666678.976
10 0 59368  33102.000000  0    3565909.176  -2910699.244   5114897.768
10 0 59368  33222.000000  0    3907864.637  -3476658.090   4473111.936
10 0 59368  33342.000000  0    4172099.482  -3987153.137   3752587.823
10 0 59368  33462.000000  0    4355036.460  -4431851.226   2965990.631
10 0 59368  33582.000000  0    4454697.212  -4801525.645   2127161.935
10 0 59368  33702.000000  0    4470720.355  -5088251.420   1250872.690
10 0 59368  33822.000000  0    4404345.942  -5285576.944    352557.196
10 0 59368  33942.000000  0    4258366.709  -5388666.811   -551966.133
10 0 59368  34062.000000  0    4037049.307  -5394413.924  -1446781.527
10 0 59368  34182.000000  0    3746024.356  -5301516.186  -2316165.363
10 0 59368  34302.000000  0    3392150.086  -5110516.060  -3144869.083
10 0 59368  34422.000000  0    2983353.311  -4823802.716  -3918391.333
10 0 59368  34542.000000  0    2528451.222  -4445577.874  -4623232.429
10 0 59368  34662.000000  0    2036959.370  -3981785.954  -5247127.020
10 0 59368  34782.000000  0    1518891.761  -3440010.760  -5779249.555
10 0 59368  34902.000000  0     984557.395  -2829344.337  -6210391.765
10 0 59368  35022.000000  0     444356.255  -2160229.493  -6533111.570
10 0 59368  35142.000000  0     -91420.823  -1444277.922  -6741850.642
10 0 59368  35262.000000  0    -612783.729   -694068.357  -6833019.923
10 0 59368  35382.000000  0   -1110224.002     77071.507  -6805054.145
10 0 59368  35502.000000  0   -1574884.121    855296.149  -6658434.933
10 0 59368  35622.000000  0   -1998711.491   1626484.266  -6395683.262
10 0 59368  35742.000000  0   -2374594.830   2376488.477  -6021320.814
10 0 59368  35862.000000  0   -2696483.115   3091389.787  -5541801.626
99
